[{"OBJECT_NAME":"STARLINK-2465","OBJECT_ID":"2021-027AJ","EPOCH":"2026-03-09T23:08:38.123232","MEAN_MOTION":15.30205814,"ECCENTRICITY":0.00013401,"INCLINATION":53.1602,"RA_OF_ASC_NODE":153.6781,"ARG_OF_PERICENTER":76.8166,"MEAN_ANOMALY":283.2984,"EPHEMERIS_TYPE":0,"CLASSIFICATION_TYPE":"U","NORAD_CAT_ID":48124,"ELEMENT_SET_NO":999,"REV_AT_EPOCH":27269,"BSTAR":0.00036558463,"MEAN_MOTION_DOT":0.00010486,"MEAN_MOTION_DDOT":0},{"OBJECT_NAME":"SL-3 R\/B","OBJECT_ID":"1982-027B","EPOCH":"2026-03-09T22:44:40.208640","MEAN_MOTION":15.28335844,"ECCENTRICITY":0.00065199,"INCLINATION":81.188,"RA_OF_ASC_NODE":37.4466,"ARG_OF_PERICENTER":276.581,"MEAN_ANOMALY":83.4683,"EPHEMERIS_TYPE":0,"CLASSIFICATION_TYPE":"U","NORAD_CAT_ID":13121,"ELEMENT_SET_NO":999,"REV_AT_EPOCH":39859,"BSTAR":0.00030526741,"MEAN_MOTION_DOT":8.453e-5,"MEAN_MOTION_DDOT":0}]
